[{"OBJECT_NAME":"STARLINK-35367","OBJECT_ID":"2025-224B","EPOCH":"2026-03-09T06:46:30.245664","MEAN_MOTION":15.30192804,"ECCENTRICITY":0.00015155,"INCLINATION":53.1613,"RA_OF_ASC_NODE":13.1257,"ARG_OF_PERICENTER":45.5217,"MEAN_ANOMALY":314.5907,"EPHEMERIS_TYPE":0,"CLASSIFICATION_TYPE":"U","NORAD_CAT_ID":65883,"ELEMENT_SET_NO":999,"REV_AT_EPOCH":2476,"BSTAR":0.00096613493,"MEAN_MOTION_DOT":0.00028358,"MEAN_MOTION_DDOT":0},{"OBJECT_NAME":"ELECTRON KICK STAGE R\/B","OBJECT_ID":"2022-147B","EPOCH":"2026-03-09T22:28:20.187264","MEAN_MOTION":15.28920172,"ECCENTRICITY":0.00095089,"INCLINATION":97.642,"RA_OF_ASC_NODE":85.1135,"ARG_OF_PERICENTER":110.4683,"MEAN_ANOMALY":249.7578,"EPHEMERIS_TYPE":0,"CLASSIFICATION_TYPE":"U","NORAD_CAT_ID":54228,"ELEMENT_SET_NO":999,"REV_AT_EPOCH":18390,"BSTAR":0.00083201931,"MEAN_MOTION_DOT":0.00023374,"MEAN_MOTION_DDOT":0}]
